{
    "links": {
        "self": "http://www.neowsapp.com/rest/v1/neo/3371363?api_key=iIulBulltgU6a56xZRHN4H3l9WmuAYTsLGpBGhQ2"
    },
    "id": "3371363",
    "neo_reference_id": "3371363",
    "name": "(2007 FB)",
    "designation": "2007 FB",
    "nasa_jpl_url": "http://ssd.jpl.nasa.gov/sbdb.cgi?sstr=3371363",
    "absolute_magnitude_h": 26.2,
    "estimated_diameter": {
        "kilometers": {
            "estimated_diameter_min": 0.0152951935,
            "estimated_diameter_max": 0.0342010925
        },
        "meters": {
            "estimated_diameter_min": 15.2951935344,
            "estimated_diameter_max": 34.201092472
        },
        "miles": {
            "estimated_diameter_min": 0.0095039897,
            "estimated_diameter_max": 0.021251567
        },
        "feet": {
            "estimated_diameter_min": 50.1810827555,
            "estimated_diameter_max": 112.2083122258
        }
    },
    "is_potentially_hazardous_asteroid": false,
    "close_approach_data": [
        {
            "close_approach_date": "2007-03-01",
            "close_approach_date_full": "2007-Mar-01 14:49",
            "epoch_date_close_approach": 1172760540000,
            "relative_velocity": {
                "kilometers_per_second": "5.6842913097",
                "kilometers_per_hour": "20463.4487148691",
                "miles_per_hour": "12715.1912306363"
            },
            "miss_distance": {
                "astronomical": "0.0283324129",
                "lunar": "11.0213086181",
                "kilometers": "4238468.621800523",
                "miles": "2633662.2770442974"
            },
            "orbiting_body": "Earth"
        }
    ],
    "orbital_data": {
        "orbit_id": "6",
        "orbit_determination_date": "2017-04-06 09:06:43",
        "first_observation_date": "2007-03-16",
        "last_observation_date": "2007-03-17",
        "data_arc_in_days": 1,
        "observations_used": 6,
        "orbit_uncertainty": "9",
        "minimum_orbit_intersection": ".0279776",
        "jupiter_tisserand_invariant": "4.928",
        "epoch_osculation": "2454176.5",
        "eccentricity": ".2632745241125202",
        "semi_major_axis": "1.312837397307275",
        "inclination": "5.820991700304941",
        "ascending_node_longitude": "171.9291887316041",
        "orbital_period": "549.4331210138286",
        "perihelion_distance": ".9672007562940822",
        "perihelion_argument": "311.1969479328304",
        "aphelion_distance": "1.658474038320467",
        "perihelion_time": "2454128.327268090163",
        "mean_anomaly": "31.5637751425343",
        "mean_motion": ".6552207834426117",
        "equinox": "J2000",
        "orbit_class": {
            "orbit_class_type": "APO",
            "orbit_class_description": "Near-Earth asteroid orbits which cross the Earth’s orbit similar to that of 1862 Apollo",
            "orbit_class_range": "a (semi-major axis) > 1.0 AU; q (perihelion) < 1.017 AU"
        }
    },
    "is_sentry_object": false
}